start=new Date('2022-04-20T00:00:00.000Z').valueOf();
sats=[{"DECAY_DATE":null,"SEMIMAJOR_AXIS":"6917.812","COUNTRY_CODE":"US","CLASSIFICATION_TYPE":"U","PERIAPSIS":"538.379","MEAN_MOTION":"15.08862538","MEAN_ANOMALY":"283.6628","OBJECT_TYPE":"PAYLOAD","TLE_LINE1":"1 50823U 22001W   22109.58334491 -.00023422  00000-0 -14574-2 0  9992","RA_OF_ASC_NODE":"64.2090","OBJECT_NAME":"STARLINK-3334","REF_FRAME":"TEME","ARG_OF_PERICENTER":"44.7083","EPOCH":"2022-04-19T14:00:01.000224","BSTAR":"-0.00145740000000","CENTER_NAME":"EARTH","OBJECT_ID":"2022-001W","TIME_SYSTEM":"UTC","APOAPSIS":"540.974","ELEMENT_SET_NO":"999","TLE_LINE2":"2 50823  53.2163  64.2090 0001876  44.7083 283.6628 15.08862538  3632","NORAD_CAT_ID":"50823","ECCENTRICITY":"0.00018760","FILE":"3408368","SITE":"AFETR","EPHEMERIS_TYPE":"0","RCS_SIZE":"LARGE","GP_ID":"201629188","INCLINATION":"53.2163","REV_AT_EPOCH":"363","LAUNCH_DATE":"2022-01-06","MEAN_MOTION_DDOT":"0.0000000000000","MEAN_MOTION_DOT":"-0.00023422","PERIOD":"95.436","MEAN_ELEMENT_THEORY":"SGP4"},{"LAUNCH_DATE":"2022-01-06","MEAN_MOTION_DDOT":"0.0000000000000","MEAN_MOTION_DOT":"-0.00010979","PERIOD":"95.437","MEAN_ELEMENT_THEORY":"SGP4","TLE_LINE2":"2 50824  53.2189  62.7293 0001748  46.5114 133.5023 15.08843191 17330","ELEMENT_SET_NO":"999","NORAD_CAT_ID":"50824","ECCENTRICITY":"0.00017480","SITE":"AFETR","FILE":"3408766","EPHEMERIS_TYPE":"0","RCS_SIZE":"LARGE","GP_ID":"201640079","INCLINATION":"53.2189","REV_AT_EPOCH":"1733","TLE_LINE1":"1 50824U 22001X   22109.91667824 -.00010979  00000-0 -67271-3 0  9995","OBJECT_TYPE":"PAYLOAD","RA_OF_ASC_NODE":"62.7293","OBJECT_NAME":"STARLINK-3340","REF_FRAME":"TEME","ARG_OF_PERICENTER":"46.5114","EPOCH":"2022-04-19T22:00:00.999936","BSTAR":"-0.00067271000000","CENTER_NAME":"EARTH","OBJECT_ID":"2022-001X","TIME_SYSTEM":"UTC","APOAPSIS":"540.945","DECAY_DATE":null,"SEMIMAJOR_AXIS":"6917.871","COUNTRY_CODE":"US","CLASSIFICATION_TYPE":"U","PERIAPSIS":"538.526","MEAN_MOTION":"15.08843191","MEAN_ANOMALY":"133.5023"},{"OBJECT_NAME":"STARLINK-3332","OBJECT_TYPE":"PAYLOAD","TLE_LINE1":"1 50825U 22001Y   22109.58334491 -.00065946  00000-0 -41581-2 0  9999","RA_OF_ASC_NODE":"64.2280","REF_FRAME":"TEME","ARG_OF_PERICENTER":"48.1320","BSTAR":"-0.00415810000000","EPOCH":"2022-04-19T14:00:01.000224","OBJECT_ID":"2022-001Y","CENTER_NAME":"EARTH","APOAPSIS":"540.817","TIME_SYSTEM":"UTC","DECAY_DATE":null,"COUNTRY_CODE":"US","SEMIMAJOR_AXIS":"6917.734","CLASSIFICATION_TYPE":"U","PERIAPSIS":"538.380","MEAN_MOTION":"15.08888027","MEAN_ANOMALY":"80.2426","MEAN_MOTION_DDOT":"0.0000000000000","LAUNCH_DATE":"2022-01-06","MEAN_MOTION_DOT":"-0.00065946","PERIOD":"95.435","MEAN_ELEMENT_THEORY":"SGP4","TLE_LINE2":"2 50825  53.2183  64.2280 0001761  48.1320  80.2426 15.08888027  3629","NORAD_CAT_ID":"50825","ELEMENT_SET_NO":"999","ECCENTRICITY":"0.00017610","FILE":"3408368","SITE":"AFETR","EPHEMERIS_TYPE":"0","RCS_SIZE":"LARGE","GP_ID":"201629690","INCLINATION":"53.2183","REV_AT_EPOCH":"362"},{"MEAN_MOTION_DOT":"-0.00017529","MEAN_ELEMENT_THEORY":"SGP4","PERIOD":"95.437","MEAN_MOTION_DDOT":"0.0000000000000","LAUNCH_DATE":"2022-01-06","GP_ID":"201628438","INCLINATION":"53.2165","REV_AT_EPOCH":"363","ECCENTRICITY":"0.00018730","NORAD_CAT_ID":"50826","TLE_LINE2":"2 50826  53.2165  64.2109 0001873  42.9672 205.4333 15.08853339  3633","ELEMENT_SET_NO":"999","RCS_SIZE":"LARGE","EPHEMERIS_TYPE":"0","FILE":"3408368","SITE":"AFETR","BSTAR":"-0.00108550000000","EPOCH":"2022-04-19T14:00:01.000224","TIME_SYSTEM":"UTC","APOAPSIS":"541.000","OBJECT_ID":"2022-001Z","CENTER_NAME":"EARTH","REF_FRAME":"TEME","OBJECT_NAME":"STARLINK-3337","RA_OF_ASC_NODE":"64.2109","TLE_LINE1":"1 50826U 22001Z   22109.58334491 -.00017529  00000-0 -10855-2 0  9994","OBJECT_TYPE":"PAYLOAD","ARG_OF_PERICENTER":"42.9672","PERIAPSIS":"538.409","MEAN_ANOMALY":"205.4333","MEAN_MOTION":"15.08853339","COUNTRY_CODE":"US","SEMIMAJOR_AXIS":"6917.840","DECAY_DATE":null,"CLASSIFICATION_TYPE":"U"},{"PERIAPSIS":"538.444","MEAN_ANOMALY":"24.6884","MEAN_MOTION":"15.08848269","COUNTRY_CODE":"US","SEMIMAJOR_AXIS":"6917.855","DECAY_DATE":null,"CLASSIFICATION_TYPE":"U","BSTAR":"-0.00122910000000","EPOCH":"2022-04-19T14:00:01.000224","APOAPSIS":"540.996","TIME_SYSTEM":"UTC","OBJECT_ID":"2022-001AA","CENTER_NAME":"EARTH","REF_FRAME":"TEME","OBJECT_NAME":"STARLINK-3329","TLE_LINE1":"1 50827U 22001AA  22109.58334491 -.00019801  00000-0 -12291-2 0  9996","RA_OF_ASC_NODE":"64.2273","OBJECT_TYPE":"PAYLOAD","ARG_OF_PERICENTER":"43.7378","GP_ID":"201628688","INCLINATION":"53.2183","REV_AT_EPOCH":"362","ECCENTRICITY":"0.00018440","ELEMENT_SET_NO":"999","TLE_LINE2":"2 50827  53.2183  64.2273 0001844  43.7378  24.6884 15.08848269  3623","NORAD_CAT_ID":"50827","RCS_SIZE":"LARGE","FILE":"3408368","SITE":"AFETR","EPHEMERIS_TYPE":"0","MEAN_MOTION_DOT":"-0.00019801","MEAN_ELEMENT_THEORY":"SGP4","PERIOD":"95.437","MEAN_MOTION_DDOT":"0.0000000000000","LAUNCH_DATE":"2022-01-06"},{"TIME_SYSTEM":"UTC","APOAPSIS":"540.939","OBJECT_ID":"2022-001AB","CENTER_NAME":"EARTH","BSTAR":"0.00049930000000","EPOCH":"2022-04-19T22:00:00.999936","ARG_OF_PERICENTER":"51.6310","REF_FRAME":"TEME","OBJECT_NAME":"STARLINK-3290","TLE_LINE1":"1 50828U 22001AB  22109.91667824  .00007667  00000-0  49930-3 0  9999","RA_OF_ASC_NODE":"62.7315","OBJECT_TYPE":"PAYLOAD","MEAN_ANOMALY":"43.1572","MEAN_MOTION":"15.08841043","PERIAPSIS":"538.545","CLASSIFICATION_TYPE":"U","COUNTRY_CODE":"US","SEMIMAJOR_AXIS":"6917.877","DECAY_DATE":null,"MEAN_ELEMENT_THEORY":"SGP4","PERIOD":"95.437","MEAN_MOTION_DOT":"0.00007667","MEAN_MOTION_DDOT":"0.0000000000000","LAUNCH_DATE":"2022-01-06","REV_AT_EPOCH":"1734","INCLINATION":"53.2185","GP_ID":"201640322","RCS_SIZE":"LARGE","EPHEMERIS_TYPE":"0","FILE":"3408761","SITE":"AFETR","ECCENTRICITY":"0.00017300","TLE_LINE2":"2 50828  53.2185  62.7315 0001730  51.6310  43.1572 15.08841043 17341","NORAD_CAT_ID":"50828","ELEMENT_SET_NO":"999"},{"INCLINATION":"53.2156","GP_ID":"201640137","REV_AT_EPOCH":"1733","NORAD_CAT_ID":"50829","TLE_LINE2":"2 50829  53.2156  62.7316 0001726  53.8450 346.1372 15.08854843 17330","ELEMENT_SET_NO":"999","ECCENTRICITY":"0.00017260","FILE":"3408767","EPHEMERIS_TYPE":"0","SITE":"AFETR","RCS_SIZE":"LARGE","MEAN_MOTION_DOT":"-0.00018093","PERIOD":"95.437","MEAN_ELEMENT_THEORY":"SGP4","MEAN_MOTION_DDOT":"0.0000000000000","LAUNCH_DATE":"2022-01-06","PERIAPSIS":"538.506","MEAN_MOTION":"15.08854843","MEAN_ANOMALY":"346.1372","DECAY_DATE":null,"COUNTRY_CODE":"US","SEMIMAJOR_AXIS":"6917.835","CLASSIFICATION_TYPE":"U","BSTAR":"-0.00112110000000","EPOCH":"2022-04-19T22:00:00.999936","OBJECT_ID":"2022-001AC","CENTER_NAME":"EARTH","APOAPSIS":"540.894","TIME_SYSTEM":"UTC","OBJECT_NAME":"STARLINK-3294","RA_OF_ASC_NODE":"62.7316","TLE_LINE1":"1 50829U 22001AC  22109.91667824 -.00018093  00000-0 -11211-2 0  9997","OBJECT_TYPE":"PAYLOAD","REF_FRAME":"TEME","ARG_OF_PERICENTER":"53.8450"},{"PERIAPSIS":"543.166","MEAN_MOTION":"15.07226680","MEAN_ANOMALY":"358.2365","DECAY_DATE":null,"COUNTRY_CODE":"US","SEMIMAJOR_AXIS":"6922.816","CLASSIFICATION_TYPE":"U","BSTAR":"-0.00209180000000","EPOCH":"2022-04-19T22:00:00.999936","OBJECT_ID":"2022-001AD","CENTER_NAME":"EARTH","TIME_SYSTEM":"UTC","APOAPSIS":"546.196","OBJECT_NAME":"STARLINK-3278","TLE_LINE1":"1 50830U 22001AD  22109.91667824 -.00032002  00000-0 -20918-2 0  9999","RA_OF_ASC_NODE":"72.5199","OBJECT_TYPE":"PAYLOAD","REF_FRAME":"TEME","ARG_OF_PERICENTER":"46.4572","GP_ID":"201640167","INCLINATION":"53.2186","REV_AT_EPOCH":"1720","NORAD_CAT_ID":"50830","TLE_LINE2":"2 50830  53.2186  72.5199 0002189  46.4572 358.2365 15.07226680 17203","ELEMENT_SET_NO":"999","ECCENTRICITY":"0.00021890","FILE":"3408764","SITE":"AFETR","EPHEMERIS_TYPE":"0","RCS_SIZE":"LARGE","MEAN_MOTION_DOT":"-0.00032002","PERIOD":"95.540","MEAN_ELEMENT_THEORY":"SGP4","MEAN_MOTION_DDOT":"0.0000000000000","LAUNCH_DATE":"2022-01-06"},{"REV_AT_EPOCH":"1734","INCLINATION":"53.2158","GP_ID":"201640366","EPHEMERIS_TYPE":"0","FILE":"3408764","SITE":"AFETR","RCS_SIZE":"LARGE","TLE_LINE2":"2 50831  53.2158  62.7124 0001810  55.1959 219.6020 15.08852831 17345","NORAD_CAT_ID":"50831","ELEMENT_SET_NO":"999","ECCENTRICITY":"0.00018100","PERIOD":"95.437","MEAN_ELEMENT_THEORY":"SGP4","MEAN_MOTION_DOT":"-0.00022478","LAUNCH_DATE":"2022-01-06","MEAN_MOTION_DDOT":"0.0000000000000","MEAN_MOTION":"15.08852831","MEAN_ANOMALY":"219.6020","PERIAPSIS":"538.454","CLASSIFICATION_TYPE":"U","DECAY_DATE":null,"SEMIMAJOR_AXIS":"6917.841","COUNTRY_CODE":"US","CENTER_NAME":"EARTH","OBJECT_ID":"2022-001AE","APOAPSIS":"540.958","TIME_SYSTEM":"UTC","EPOCH":"2022-04-19T22:00:00.999936","BSTAR":"-0.00139810000000","ARG_OF_PERICENTER":"55.1959","TLE_LINE1":"1 50831U 22001AE  22109.91667824 -.00022478  00000-0 -13981-2 0  9998","OBJECT_TYPE":"PAYLOAD","RA_OF_ASC_NODE":"62.7124","OBJECT_NAME":"STARLINK-3299","REF_FRAME":"TEME"},{"ARG_OF_PERICENTER":"35.0607","REF_FRAME":"TEME","OBJECT_TYPE":"PAYLOAD","TLE_LINE1":"1 50832U 22001AF  22109.58334491 -.00070637  00000-0 -44586-2 0  9998","RA_OF_ASC_NODE":"74.2105","OBJECT_NAME":"STARLINK-3328","APOAPSIS":"541.296","TIME_SYSTEM":"UTC","CENTER_NAME":"EARTH","OBJECT_ID":"2022-001AF","EPOCH":"2022-04-19T14:00:01.000224","BSTAR":"-0.00445860000000","CLASSIFICATION_TYPE":"U","SEMIMAJOR_AXIS":"6917.752","COUNTRY_CODE":"US","DECAY_DATE":null,"MEAN_ANOMALY":"278.3319","MEAN_MOTION":"15.08882075","PERIAPSIS":"537.937","LAUNCH_DATE":"2022-01-06","MEAN_MOTION_DDOT":"0.0000000000000","MEAN_ELEMENT_THEORY":"SGP4","PERIOD":"95.435","MEAN_MOTION_DOT":"-0.00070637","RCS_SIZE":"LARGE","FILE":"3408368","SITE":"AFETR","EPHEMERIS_TYPE":"0","ECCENTRICITY":"0.00024280","TLE_LINE2":"2 50832  53.2186  74.2105 0002428  35.0607 278.3319 15.08882075  3607","ELEMENT_SET_NO":"999","NORAD_CAT_ID":"50832","REV_AT_EPOCH":"360","INCLINATION":"53.2186","GP_ID":"201629941"}];
